[
    {
        "Altitude(m)": 607895.8586307814,
        "Argument of Periapsis(deg)": 0.0,
        "Eccentricity": 0.0,
        "Inclination(deg)": 60.0,
        "Latitude(deg)": 40.998451312763116,
        "Longitude(deg)": 100.08865507956011,
        "Mean Anomaly(deg)": 130.9091,
        "RAAN(deg)": 50.0,
        "Satellite Name": "Test1 228",
        "Satellite Number": 228,
        "Semi-Major Axis(m)": 6980739.136638005,
        "Time(s)": 0
    },
    {
        "Altitude(m)": 607795.1713362769,
        "Argument of Periapsis(deg)": 0.00010418945913296404,
        "Eccentricity": 0.0,
        "Inclination(deg)": 60.0,
        "Latitude(deg)": 40.53077548312596,
        "Longitude(deg)": 100.58524958091289,
        "Mean Anomaly(deg)": 131.5292061454618,
        "RAAN(deg)": 49.99957995086026,
        "Satellite Name": "Test1 228",
        "Satellite Number": 228,
        "Semi-Major Axis(m)": 6980739.136638005,
        "Time(s)": 10
    }
]